QIANFAN-73              
1 63159U 25046A   25240.54464944  .00000199  00000+0  28855-3 0  9993
2 63159  88.9861 330.9809 0016732  75.5762 284.7245 13.50966170 33072
QIANFAN-74              
1 63160U 25046B   25240.52812738  .00000195  00000+0  28381-3 0  9991
2 63160  88.9861 330.8710 0002079 109.4814 250.6562 13.50971579 33138
QIANFAN-75              
1 63161U 25046C   25240.51588904  .00000203  00000+0  29534-3 0  9997
2 63161  88.9862 331.1043 0017914  78.2987 282.0173 13.50967780 33003
QIANFAN-76              
1 63162U 25046D   25240.51166697  .00000197  00000+0  28565-3 0  9994
2 63162  88.9862 331.0858 0015502  79.5482 280.7415 13.50964510 33015
QIANFAN-77              
1 63163U 25046E   25240.53599300  .00000458  00000+0  32435-3 0  9999
2 63163  88.9858 329.9620 0016229  58.9912 301.2856 13.96025916 33634
QIANFAN-78              
1 63164U 25046F   25240.55289187  .00000195  00000+0  28248-3 0  9996
2 63164  88.9860 330.9468 0016912  81.1303 279.1762 13.50967647 33096
QIANFAN-79              
1 63165U 25046G   25240.58156809  .00000206  00000+0  29937-3 0  9993
2 63165  88.9864 331.0472 0016558  79.6340 280.6677 13.50969797 33042
QIANFAN-80              
1 63166U 25046H   25240.52407673  .00000192  00000+0  27892-3 0  9998
2 63166  88.9861 330.7630 0015639  83.8669 276.4264 13.50969618 33195
